{
    "links": {
        "self": "http://www.neowsapp.com/rest/v1/neo/3728566?api_key=iIulBulltgU6a56xZRHN4H3l9WmuAYTsLGpBGhQ2"
    },
    "id": "3728566",
    "neo_reference_id": "3728566",
    "name": "(2015 SP2)",
    "designation": "2015 SP2",
    "nasa_jpl_url": "http://ssd.jpl.nasa.gov/sbdb.cgi?sstr=3728566",
    "absolute_magnitude_h": 24.9,
    "estimated_diameter": {
        "kilometers": {
            "estimated_diameter_min": 0.0278326768,
            "estimated_diameter_max": 0.0622357573
        },
        "meters": {
            "estimated_diameter_min": 27.8326768072,
            "estimated_diameter_max": 62.2357573367
        },
        "miles": {
            "estimated_diameter_min": 0.0172944182,
            "estimated_diameter_max": 0.0386714948
        },
        "feet": {
            "estimated_diameter_min": 91.3145593761,
            "estimated_diameter_max": 204.1855621004
        }
    },
    "is_potentially_hazardous_asteroid": false,
    "close_approach_data": [
        {
            "close_approach_date": "2010-05-16",
            "close_approach_date_full": "2010-May-16 20:02",
            "epoch_date_close_approach": 1274040120000,
            "relative_velocity": {
                "kilometers_per_second": "7.8285097172",
                "kilometers_per_hour": "28182.6349819851",
                "miles_per_hour": "17511.5933864451"
            },
            "miss_distance": {
                "astronomical": "0.0860581022",
                "lunar": "33.4766017558",
                "kilometers": "12874108.785362314",
                "miles": "7999600.2528313732"
            },
            "orbiting_body": "Mars"
        },
        {
            "close_approach_date": "2015-09-20",
            "close_approach_date_full": "2015-Sep-20 03:25",
            "epoch_date_close_approach": 1442719500000,
            "relative_velocity": {
                "kilometers_per_second": "11.4344211469",
                "kilometers_per_hour": "41163.9161289232",
                "miles_per_hour": "25577.6566635523"
            },
            "miss_distance": {
                "astronomical": "0.0386350019",
                "lunar": "15.0290157391",
                "kilometers": "5779713.991685953",
                "miles": "3591347.7414260314"
            },
            "orbiting_body": "Earth"
        },
        {
            "close_approach_date": "2157-10-04",
            "close_approach_date_full": "2157-Oct-04 10:58",
            "epoch_date_close_approach": 5925092280000,
            "relative_velocity": {
                "kilometers_per_second": "12.5158147726",
                "kilometers_per_hour": "45056.9331813737",
                "miles_per_hour": "27996.6260648374"
            },
            "miss_distance": {
                "astronomical": "0.1865283892",
                "lunar": "72.5595433988",
                "kilometers": "27904249.718851004",
                "miles": "17338896.7599676952"
            },
            "orbiting_body": "Earth"
        }
    ],
    "orbital_data": {
        "orbit_id": "6",
        "orbit_determination_date": "2017-04-06 08:31:47",
        "first_observation_date": "2015-09-20",
        "last_observation_date": "2015-09-27",
        "data_arc_in_days": 7,
        "observations_used": 20,
        "orbit_uncertainty": "8",
        "minimum_orbit_intersection": ".0183084",
        "jupiter_tisserand_invariant": "4.872",
        "epoch_osculation": "2457287.5",
        "eccentricity": ".224379171707255",
        "semi_major_axis": "1.316287850746767",
        "inclination": "20.36008215408881",
        "ascending_node_longitude": "358.703369756284",
        "orbital_period": "551.6006078384441",
        "perihelion_distance": "1.020940273067885",
        "perihelion_argument": "6.533977551910863",
        "aphelion_distance": "1.61163542842565",
        "perihelion_time": "2457291.940864010630",
        "mean_anomaly": "357.1016873057997",
        "mean_motion": ".6526461263535061",
        "equinox": "J2000",
        "orbit_class": {
            "orbit_class_type": "AMO",
            "orbit_class_description": "Near-Earth asteroid orbits similar to that of 1221 Amor",
            "orbit_class_range": "1.017 AU < q (perihelion) < 1.3 AU"
        }
    },
    "is_sentry_object": false
}